#dP2022 12  7  0  0  0.00000000      96 __u+U IGS14 FIT  IAC
## 2239 259200.00000000   900.00000000 59920 0.0000000000000
+  116   C06C07C08C09C11C12C13C14C16C19C20C21C22C23C24C25C26
+        C27C28C29C30C32C33C34C35C36C37C38C39C40C41C42C43C44
+        C45C46E01E02E03E04E05E07E08E09E10E12E13E14E15E18E19
+        E21E24E25E26E27E30E31E33E34E36G01G02G03G04G05G06G07
+        G08G09G10G11G12G13G14G15G16G17G18G19G20G21G22G23G24
+        G25G26G27G29G30G31G32J02J03J04R01R02R03R04R05R07R08
+        R09R11R12R13R14R15R17R18R19R20R21R22R24R25  0  0  0
++         7  8  7  7  7  7  7  7  7  6  6  6  6  6  6  6  6
++         6  6  6  6  5  6  6  6  6  6  6  6  7  6  6  6  6
++         6  6  4  4  4  4  4  4  4  4  4  4  4  4  4  5  4
++         4  4  4  4  4  4  4  4  4  4  4  3  4  4  3  4  3
++         3  3  4  4  3  3  3  3  4  4  3  4  4  3  4  3  3
++         4  4  3  4  3  4  4  9  9 10  8  7  7  6  7  7  7
++         7  7  6  7  7  7  7  7  8  8  7  8  7  8  0  0  0
%c M  cc GPS ccc cccc cccc cccc cccc ccccc ccccc ccccc ccccc
%c cc cc ccc ccc cccc cccc cccc cccc ccccc ccccc ccccc ccccc
%f  1.2500000  1.025000000  0.00000000000  0.000000000000000
%f  0.0000000  0.000000000  0.00000000000  0.000000000000000
%i    0    0    0    0      0      0      0      0         0
%i    0    0    0    0      0      0      0      0         0
/* INFORMATION & ANALYSIS CENTER (IAC)            FINAL DATA
/* S/V CLOCKS ARE ALIGNED TO GNSS TIME                      
/* G:C1WC2W R:C1PC2P E:C1XC5X C:C2IC6I J:C1CC2S             
/* PCV:IGS20_2233 OL/AL:FES2004  NONE     YN ORB:CoN CLK:CoN
*  2022 12 07  9  0  0.00000000
PC06 -16669.968348  31875.842719  21816.879606    222.342319
PC07  -4064.094331  39078.893612  15559.190607    109.835756
PC08  -4676.037518  20352.138157 -36618.643318    520.451874
PC09  -9912.353304  30415.403221  27569.800737   -788.759835
PC11  21555.285268  -4936.947062 -16928.939753   -249.863631
PC12  10302.630309  11411.244061 -23242.724745    334.689699
PC13   3390.541430  23790.672990 -34432.262416    152.064238
PC14  16717.681984   3770.334248  22045.827173    243.090164
PC16 -21551.276609  31577.459313  17657.624466    105.644023
PC19 -14177.688266   7377.084660 -22858.262228   -906.032280
PC20 -16579.929232 -12412.671102 -18685.946310    813.910030
PC21   9109.898739  26226.667168   2899.981329   -929.336089
PC22  -3522.891419  23871.248065 -14039.514575   -753.263294
PC23   9220.267197 -14100.450342 -22246.065265   -872.616099
PC24  25317.414565  10568.857829   4997.280653   -707.388911
PC25  24208.180832  -3922.995935 -13304.973038     35.839057
PC26  12872.130609  16661.079897  18280.907144    -46.415261
PC27  -2739.934249 -17902.880966  21218.221872     62.561897
PC28  13417.790055 -22476.560853   9673.347301     44.458052
PC29 -22179.896973  14441.652510   8844.376483     50.462985
PC30 -17576.107027  -3172.934362  21434.694123      1.154488
PC32  -9241.860122 -26181.848204  -2778.176350   -691.210387
PC33  14217.570660  -7328.927795  22864.959141   -897.989194
PC34  18311.209724   2045.863157 -20970.292011     55.710216
PC35 -13816.637750  22803.138457  -8188.308946    122.023863
PC36 -24645.508594   2894.753692  12796.931827   -785.637312
PC37 -11142.519669 -17123.094719 -19014.871082   -891.033312
PC38 -13253.461333  19467.630116 -34971.048091     43.270309
PC39 -23355.879533  32404.970664  13212.685884     -1.022344
PC40  -8950.697822  36134.061517  20001.551678     -9.676918
PC41   3893.667346 -23539.983934  14522.183853   -354.193405
PC42  16502.090897  13624.007519  17956.632606   -804.519342
PC43  22351.408015 -13761.122448  -9510.670300     28.848411
PC44   3335.014380  17984.569056 -21073.794470    137.351532
PC45  -8819.728068  14125.587262  22391.740349    -31.659085
PC46 -26050.815125  -9518.298626  -3304.351256    -17.955145
PE01   9163.484693 -14319.856973 -24230.896173   -577.500964
PE02  -8944.285788  14511.660479  24195.078639      7.090792
PE03 -12975.597118  25391.615448  -7964.554092   -627.369792
PE04    339.179336 -27778.616098 -10225.686822     -8.842509
PE05 -18263.492110   8000.964696 -21880.126779   -117.450686
PE07  12824.654501  13793.815583  22833.169052     -5.223387
PE08   -364.105509  27776.973109  10223.348144      1.325848
PE09 -12628.120222 -13925.186703 -22866.910783   -755.358459
PE10 -11897.415621 -12800.349828  23891.859137   -496.067821
PE12  -1009.118920 -16277.401306  24707.087780   -318.439511
PE13  21098.176648   7427.875682 -19377.596024    430.441505
PE14   9162.810076  22946.169167 -21007.388737     77.666914
PE15    678.690886  16262.167226 -24711.715798    702.561636
PE18 -10396.361936 -12288.527708  17414.520619   -656.792732
PE19  14267.640632 -23775.548970  10370.116725  -3806.391744
PE21  21439.931175   2221.977369 -20282.993183   -498.928888
PE24 -22064.066035 -19431.492273   3555.928846   -988.281354
PE25 -21580.208164  -2534.642019  20112.129449   -594.379300
PE26  28891.147376  -6139.331789  -1874.068794  -1888.586883
PE27  22435.516955  18769.996275  -4468.919617   -457.323509
PE30   9458.985185  24068.331956  14375.649406  -1058.299373
PE31 -10230.790059 -24105.829601 -13802.949882   -510.038040
PE33  19992.848727 -15443.474567  15437.929612   -455.612677
PE34 -19834.975787  15526.089506 -15556.340806    -18.376112
PE36 -28924.691608   5648.580514   2762.858920   -471.762094
PG01   5768.559686  13886.557826 -22233.219921    241.131793
PG02  -9071.564036 -13189.539831  21799.185681   -634.279053
PG03  10771.560732  22571.638900  -9225.579065   -375.148292
PG04   1800.844899  22235.665469  14336.639838    -73.090347
PG05    743.698024 -18521.464970  18803.803012   -107.135755
PG06  25771.258692  -6082.556456   2636.202437    535.036894
PG07  20342.846744   7996.875947  15842.692536    277.810225
PG08  -5473.859327  25442.748217  -4216.160015    -97.449949
PG09  10755.247858  13101.540199  20356.968011   -257.330697
PG10 -19865.851356  -6308.694869 -16484.706162    -15.044386
PG11  19192.583905 -12016.360337  13861.095555    -52.423370
PG12  -8334.436322 -23304.411969 -10050.606101   -313.034127
PG13  13190.390455 -22880.103360   1404.267607    437.709587
PG14  20244.335530   8523.759091 -15007.722604    -72.102367
PG15   1990.180599 -25966.212609  -4827.901137     -6.165342
PG16  -6716.420527  15022.515436  20457.481202   -526.442920
PG17  15841.419963  -1020.141917 -20868.547279    683.964344
PG18 -21845.813972  -6182.342895  13903.629832    -49.752130
PG19  17775.724260 -11871.736224 -15823.894564    247.256556
PG20  11650.293429 -10405.102469  21490.193935    465.186321
PG21  -3275.680858  15638.577924 -20466.084706    154.417963
PG22 -17019.300338  15217.306349 -13000.594539    379.709142
PG23 -20486.940018 -15194.186614  -7666.815922     -0.288334
PG24  -1931.834756 -15927.653216 -21481.866514     26.792721
PG25 -16702.852191 -20828.900709  -1182.527088    399.741247
PG26 -15568.029964   5742.846776  20695.270633    237.814761
PG27 -12703.150439  22096.846811   6452.993012    159.630459
PG29  -7726.117648 -15575.815029  20011.293374   -572.343800
PG30  26165.931697   -233.100167   5383.538633   -535.785706
PG31 -25669.097997   6632.700938   3819.910273   -202.512350
PG32 -16562.129294   4559.509170 -20050.013768   -321.224480
PJ02 -25873.572391  21978.956999  30066.527497     -0.265865
PJ03 -34750.138219  23004.151010  -1486.321101     -6.138973
PJ04 -20198.416352  27111.178204 -20084.746392    114.565573
PR01   9743.472636  16724.583833  16613.536222     19.129033
PR02  10630.981654  -3003.530223  23032.927260    -23.411648
PR03   5584.932046 -19867.230266  15075.852128     68.629118
PR04  -2336.230633 -25388.858112  -1041.321114    167.664442
PR05  -8968.879367 -17162.311783 -16615.387426    104.143713
PR07  -5248.134466  20337.498427 -14400.483415     45.642963
PR08   2589.863513  25326.179329   1314.630851    -68.458394
PR09 -21894.702642  -2895.530160  12713.171919     91.663235
PR11   7648.287965  13905.531605  19982.294742     16.477176
PR12  21636.662698  12640.164471   4734.825618     23.447275
PR13  22447.844034   4234.277580 -11361.790783    -29.689714
PR14   9349.913436  -7662.132403 -22454.653040     24.071037
PR15  -8494.705166 -14263.368578 -19350.680889     92.496043
PR17  18131.360480 -16349.435901   7332.872501    584.752630
PR18   5377.568365 -14542.569024  20292.049651     55.609927
PR19  -9056.236683  -6371.268237  22986.472201   -213.665012
PR20 -21641.908491   7749.580675  11030.375554    -83.494508
PR21 -17366.982368  16458.642371  -8876.469263   -355.560979
PR22  -4958.195214  14346.555519 -20465.278082     19.540191
PR24  21657.983637  -8663.523380 -10277.374125    131.185187
PR25 -19123.389663  15448.150689  -6839.437645     48.253889
EOF
